[
  {
    "COMMENT": "GENERATED VIA SPACETRACK.ORG API",
    "ORIGINATOR": "18 SPCS",
    "NORAD_CAT_ID": "43682",
    "OBJECT_NAME": "H-2A R/B",
    "OBJECT_TYPE": "ROCKET BODY",
    "CLASSIFICATION_TYPE": "U",
    "INTLDES": "18084L",
    "EPOCH": "2019-03-11 22:37:19",
    "EPOCH_MICROSECONDS": "982496",
    "MEAN_MOTION": "15.02533916",
    "ECCENTRICITY": "0.0056496",
    "INCLINATION": "98.8643",
    "RA_OF_ASC_NODE": "205.0465",
    "ARG_OF_PERICENTER": "209.4",
    "MEAN_ANOMALY": "150.4037",
    "EPHEMERIS_TYPE": "0",
    "ELEMENT_SET_NO": "999",
    "REV_AT_EPOCH": "2004",
    "BSTAR": "-0.000020879",
    "MEAN_MOTION_DOT": "-0.00000372",
    "MEAN_MOTION_DDOT": "0",
    "FILE": "2423683",
    "TLE_LINE0": "0 H-2A R/B",
    "TLE_LINE1": "1 43682U 18084L   19070.94259239 -.00000372 +00000-0 -20879-4 0  9998",
    "TLE_LINE2": "2 43682 098.8643 205.0465 0056496 209.4000 150.4037 15.02533916020041",
    "OBJECT_ID": "2018-084L",
    "OBJECT_NUMBER": "43682",
    "SEMIMAJOR_AXIS": "6937.223",
    "PERIOD": "95.838",
    "APOGEE": "598.280",
    "PERIGEE": "519.895",
    "DECAYED": "0"
  },
  {
    "COMMENT": "GENERATED VIA SPACETRACK.ORG API",
    "ORIGINATOR": "18 SPCS",
    "NORAD_CAT_ID": "43682",
    "OBJECT_NAME": "H-2A R/B",
    "OBJECT_TYPE": "ROCKET BODY",
    "CLASSIFICATION_TYPE": "U",
    "INTLDES": "18084L",
    "EPOCH": "2019-03-12 20:59:53",
    "EPOCH_MICROSECONDS": "233152",
    "MEAN_MOTION": "15.02533086",
    "ECCENTRICITY": "0.005655",
    "INCLINATION": "98.8646",
    "RA_OF_ASC_NODE": "206.1119",
    "ARG_OF_PERICENTER": "206.3455",
    "MEAN_ANOMALY": "153.4886",
    "EPHEMERIS_TYPE": "0",
    "ELEMENT_SET_NO": "999",
    "REV_AT_EPOCH": "2018",
    "BSTAR": "-0.000023789",
    "MEAN_MOTION_DOT": "-0.00000412",
    "MEAN_MOTION_DDOT": "0",
    "FILE": "2423764",
    "TLE_LINE0": "0 H-2A R/B",
    "TLE_LINE1": "1 43682U 18084L   19071.87492168 -.00000412  00000-0 -23789-4 0  9999",
    "TLE_LINE2": "2 43682  98.8646 206.1119 0056550 206.3455 153.4886 15.02533086 20181",
    "OBJECT_ID": "2018-084L",
    "OBJECT_NUMBER": "43682",
    "SEMIMAJOR_AXIS": "6937.226",
    "PERIOD": "95.838",
    "APOGEE": "598.321",
    "PERIGEE": "519.860",
    "DECAYED": "0"
  },
  {
    "COMMENT": "GENERATED VIA SPACETRACK.ORG API",
    "ORIGINATOR": "18 SPCS",
    "NORAD_CAT_ID": "43682",
    "OBJECT_NAME": "H-2A R/B",
    "OBJECT_TYPE": "ROCKET BODY",
    "CLASSIFICATION_TYPE": "U",
    "INTLDES": "18084L",
    "EPOCH": "2019-03-12 22:35:47",
    "EPOCH_MICROSECONDS": "44608",
    "MEAN_MOTION": "15.02532987",
    "ECCENTRICITY": "0.0056562",
    "INCLINATION": "98.8646",
    "RA_OF_ASC_NODE": "206.188",
    "ARG_OF_PERICENTER": "206.1199",
    "MEAN_ANOMALY": "153.7166",
    "EPHEMERIS_TYPE": "0",
    "ELEMENT_SET_NO": "999",
    "REV_AT_EPOCH": "2019",
    "BSTAR": "-0.000024326",
    "MEAN_MOTION_DOT": "-0.00000419",
    "MEAN_MOTION_DDOT": "0",
    "FILE": "2423818",
    "TLE_LINE0": "0 H-2A R/B",
    "TLE_LINE1": "1 43682U 18084L   19071.94151672 -.00000419 +00000-0 -24326-4 0  9994",
    "TLE_LINE2": "2 43682 098.8646 206.1880 0056562 206.1199 153.7166 15.02532987020196",
    "OBJECT_ID": "2018-084L",
    "OBJECT_NUMBER": "43682",
    "SEMIMAJOR_AXIS": "6937.226",
    "PERIOD": "95.838",
    "APOGEE": "598.329",
    "PERIGEE": "519.852",
    "DECAYED": "0"
  },
  {
    "COMMENT": "GENERATED VIA SPACETRACK.ORG API",
    "ORIGINATOR": "18 SPCS",
    "NORAD_CAT_ID": "43682",
    "OBJECT_NAME": "H-2A R/B",
    "OBJECT_TYPE": "ROCKET BODY",
    "CLASSIFICATION_TYPE": "U",
    "INTLDES": "18084L",
    "EPOCH": "2019-03-13 22:34:14",
    "EPOCH_MICROSECONDS": "152512",
    "MEAN_MOTION": "15.02532104",
    "ECCENTRICITY": "0.00566",
    "INCLINATION": "98.8649",
    "RA_OF_ASC_NODE": "207.3297",
    "ARG_OF_PERICENTER": "202.8698",
    "MEAN_ANOMALY": "156.9999",
    "EPHEMERIS_TYPE": "0",
    "ELEMENT_SET_NO": "999",
    "REV_AT_EPOCH": "2034",
    "BSTAR": "-0.00002677",
    "MEAN_MOTION_DOT": "-0.00000453",
    "MEAN_MOTION_DDOT": "0",
    "FILE": "2424365",
    "TLE_LINE0": "0 H-2A R/B",
    "TLE_LINE1": "1 43682U 18084L   19072.94044158 -.00000453  00000-0 -26770-4 0  9998",
    "TLE_LINE2": "2 43682  98.8649 207.3297 0056600 202.8698 156.9999 15.02532104 20341",
    "OBJECT_ID": "2018-084L",
    "OBJECT_NUMBER": "43682",
    "SEMIMAJOR_AXIS": "6937.229",
    "PERIOD": "95.838",
    "APOGEE": "598.358",
    "PERIGEE": "519.829",
    "DECAYED": "0"
  },
  {
    "COMMENT": "GENERATED VIA SPACETRACK.ORG API",
    "ORIGINATOR": "18 SPCS",
    "NORAD_CAT_ID": "43682",
    "OBJECT_NAME": "H-2A R/B",
    "OBJECT_TYPE": "ROCKET BODY",
    "CLASSIFICATION_TYPE": "U",
    "INTLDES": "18084L",
    "EPOCH": "2019-03-13 22:34:14",
    "EPOCH_MICROSECONDS": "152512",
    "MEAN_MOTION": "15.02532104",
    "ECCENTRICITY": "0.00566",
    "INCLINATION": "98.8649",
    "RA_OF_ASC_NODE": "207.3297",
    "ARG_OF_PERICENTER": "202.8698",
    "MEAN_ANOMALY": "156.9999",
    "EPHEMERIS_TYPE": "0",
    "ELEMENT_SET_NO": "999",
    "REV_AT_EPOCH": "2034",
    "BSTAR": "-0.00002677",
    "MEAN_MOTION_DOT": "-0.00000453",
    "MEAN_MOTION_DDOT": "0",
    "FILE": "2424442",
    "TLE_LINE0": "0 H-2A R/B",
    "TLE_LINE1": "1 43682U 18084L   19072.94044158 -.00000453 +00000-0 -26770-4 0  9998",
    "TLE_LINE2": "2 43682 098.8649 207.3297 0056600 202.8698 156.9999 15.02532104020341",
    "OBJECT_ID": "2018-084L",
    "OBJECT_NUMBER": "43682",
    "SEMIMAJOR_AXIS": "6937.229",
    "PERIOD": "95.838",
    "APOGEE": "598.358",
    "PERIGEE": "519.829",
    "DECAYED": "0"
  },
  {
    "COMMENT": "GENERATED VIA SPACETRACK.ORG API",
    "ORIGINATOR": "18 SPCS",
    "NORAD_CAT_ID": "43682",
    "OBJECT_NAME": "H-2A R/B",
    "OBJECT_TYPE": "ROCKET BODY",
    "CLASSIFICATION_TYPE": "U",
    "INTLDES": "18084L",
    "EPOCH": "2019-03-14 22:32:41",
    "EPOCH_MICROSECONDS": "326944",
    "MEAN_MOTION": "15.02531141",
    "ECCENTRICITY": "0.005667",
    "INCLINATION": "98.8653",
    "RA_OF_ASC_NODE": "208.4715",
    "ARG_OF_PERICENTER": "199.6027",
    "MEAN_ANOMALY": "160.3015",
    "EPHEMERIS_TYPE": "0",
    "ELEMENT_SET_NO": "999",
    "REV_AT_EPOCH": "2049",
    "BSTAR": "-0.000029261",
    "MEAN_MOTION_DOT": "-0.00000487",
    "MEAN_MOTION_DDOT": "0",
    "FILE": "2425243",
    "TLE_LINE0": "0 H-2A R/B",
    "TLE_LINE1": "1 43682U 18084L   19073.93936721 -.00000487 +00000-0 -29261-4 0  9999",
    "TLE_LINE2": "2 43682 098.8653 208.4715 0056670 199.6027 160.3015 15.02531141020493",
    "OBJECT_ID": "2018-084L",
    "OBJECT_NUMBER": "43682",
    "SEMIMAJOR_AXIS": "6937.231",
    "PERIOD": "95.838",
    "APOGEE": "598.410",
    "PERIGEE": "519.783",
    "DECAYED": "0"
  },
  {
    "COMMENT": "GENERATED VIA SPACETRACK.ORG API",
    "ORIGINATOR": "18 SPCS",
    "NORAD_CAT_ID": "43682",
    "OBJECT_NAME": "H-2A R/B",
    "OBJECT_TYPE": "ROCKET BODY",
    "CLASSIFICATION_TYPE": "U",
    "INTLDES": "18084L",
    "EPOCH": "2019-03-15 04:56:16",
    "EPOCH_MICROSECONDS": "586592",
    "MEAN_MOTION": "15.02531001",
    "ECCENTRICITY": "0.0056662",
    "INCLINATION": "98.8654",
    "RA_OF_ASC_NODE": "208.7758",
    "ARG_OF_PERICENTER": "198.7471",
    "MEAN_ANOMALY": "161.1671",
    "EPHEMERIS_TYPE": "0",
    "ELEMENT_SET_NO": "999",
    "REV_AT_EPOCH": "2053",
    "BSTAR": "-0.00002848",
    "MEAN_MOTION_DOT": "-0.00000476",
    "MEAN_MOTION_DDOT": "0",
    "FILE": "2425273",
    "TLE_LINE0": "0 H-2A R/B",
    "TLE_LINE1": "1 43682U 18084L   19074.20574753 -.00000476  00000-0 -28480-4 0  9993",
    "TLE_LINE2": "2 43682  98.8654 208.7758 0056662 198.7471 161.1671 15.02531001 20535",
    "OBJECT_ID": "2018-084L",
    "OBJECT_NUMBER": "43682",
    "SEMIMAJOR_AXIS": "6937.232",
    "PERIOD": "95.838",
    "APOGEE": "598.405",
    "PERIGEE": "519.789",
    "DECAYED": "0"
  },
  {
    "COMMENT": "GENERATED VIA SPACETRACK.ORG API",
    "ORIGINATOR": "18 SPCS",
    "NORAD_CAT_ID": "43682",
    "OBJECT_NAME": "H-2A R/B",
    "OBJECT_TYPE": "ROCKET BODY",
    "CLASSIFICATION_TYPE": "U",
    "INTLDES": "18084L",
    "EPOCH": "2019-03-15 22:31:08",
    "EPOCH_MICROSECONDS": "510016",
    "MEAN_MOTION": "15.02530644",
    "ECCENTRICITY": "0.005669",
    "INCLINATION": "98.8655",
    "RA_OF_ASC_NODE": "209.6132",
    "ARG_OF_PERICENTER": "196.3476",
    "MEAN_ANOMALY": "163.5917",
    "EPHEMERIS_TYPE": "0",
    "ELEMENT_SET_NO": "999",
    "REV_AT_EPOCH": "2064",
    "BSTAR": "-0.000026566",
    "MEAN_MOTION_DOT": "-0.0000045",
    "MEAN_MOTION_DDOT": "0",
    "FILE": "2426008",
    "TLE_LINE0": "0 H-2A R/B",
    "TLE_LINE1": "1 43682U 18084L   19074.93829294 -.00000450 +00000-0 -26566-4 0  9991",
    "TLE_LINE2": "2 43682 098.8655 209.6132 0056690 196.3476 163.5917 15.02530644020645",
    "OBJECT_ID": "2018-084L",
    "OBJECT_NUMBER": "43682",
    "SEMIMAJOR_AXIS": "6937.233",
    "PERIOD": "95.838",
    "APOGEE": "598.425",
    "PERIGEE": "519.771",
    "DECAYED": "0"
  }
]